SL-12 DEB
1 21935U 83127M   23072.37223712  .00122871  00000-0  84047-1 0  9997
2 21935  52.3848 189.4740 4235933  66.6894 331.9010  6.73618822579217
SL-8 DEB
1 21936U 91009CD  23072.38511140  .00000239  00000-0  27869-2 0  9995
2 21936  74.0618  64.2738 0260643  35.7467 114.2305 12.01081349365641
COSMOS 2184
1 21937U 92020A   23072.49383755  .00000085  00000-0  74973-4 0  9990
2 21937  82.9284 276.7020 0032404 225.5194 143.3114 13.73219920548777
SL-8 R/B
1 21938U 92020B   23072.49340319  .00000240  00000-0  23341-3 0  9995
2 21938  82.9273 244.8196 0030352 105.6163 279.5959 13.75337474550993
TELECOM 2B
1 21939U 92021A   23072.45073538  .00000100  00000-0  00000-0 0  9998
2 21939  14.1050  12.4309 0016689  57.3736 312.2817  0.99513040105536
INMARSAT 2-F4
1 21940U 92021B   23072.09910483 -.00000169  00000-0  00000-0 0  9995
2 21940  11.1000  21.4503 0006873 110.3044  74.2744  0.97944774 38979
ARIANE 44L+ DEB (SPELDA)
1 21942U 92021D   23072.19357698  .00009708  00000-0  51266-2 0  9990
2 21942   4.3005 277.7663 6072591 288.6247  17.0211  3.87857656350406
SL-8 DEB
1 21943U 91009CE  23072.81315966  .00000069  00000-0  80115-3 0  9994
2 21943  73.9556 189.2202 0137505 312.6741 212.8191 12.19222070425017
CRRES DEB (CANISTER)
1 21948U 90065S   23072.52748438  .00004464  00000-0  11562-2 0  9994
2 21948  17.6657 191.2697 6299178  11.4373 357.9035  3.59252071319957
SL-8 DEB
1 21955U 91009CF  23072.51665656  .00000159  00000-0  18616-2 0  9994
2 21955  74.3039  89.4735 0164403 292.5366 226.5452 12.08173344411350
COSMOS 839 DEB *
1 21957U 76067BV  23071.20351666  .00001751  00000-0  35054-2 0  9995
2 21957  65.4672 355.8148 0724622  32.0212 332.2763 12.64377986446073
SL-8 DEB
1 21958U 91009CG  23072.58548709  .00000115  00000-0  12676-2 0  9995
2 21958  73.9607 269.8001 0132919  27.6041   0.0213 12.16750298421846
SL-8 DEB
1 21959U 91009CH  23072.42365385  .00000094  00000-0  10485-2 0  9998
2 21959  73.9666 231.3471 0128270 334.0440  52.8753 12.18732339423204
PALAPA B4
1 21964U 92027A   23072.11785616  .00000055  00000-0  00000-0 0  9991
2 21964  12.0470  25.4087 0005260  20.7088 185.5812  0.99944495 35272
DELTA 2 R/B(1)
1 21965U 92027B   23072.46550475  .00001873  00000-0  54397-3 0  9993
2 21965  19.6782 129.0658 1371712 174.3371 187.4352 12.19219646370200
DELTA 2 R/B(2)
1 21966U 92027C   23072.07984005 -.00000029  00000-0  00000-0 0  9993
2 21966  22.8714 325.0366 6480087   0.8463 359.9797  2.05330450231286
DELTA 1 DEB
1 21969U 75052JV  23072.22403959  .00000898  00000-0  16840-2 0  9990
2 21969  99.0353 159.0465 0114974 109.8317 278.6375 13.38767134540193
THOR ABLESTAR DEB *
1 21970U 61015ML  23072.56181056  .00022291  00000-0  79649-3 0  9992
2 21970  65.9789 114.0227 0191738  92.0857 270.2246 15.13174741665534
DELTA 1 DEB
1 21972U 75052JW  23072.38873459  .00000016  00000-0  15751-3 0  9990
2 21972  99.6125  50.8106 0335788 254.1020 267.3579 12.91709517460509
COSMOS 2187
1 21976U 92030A   23072.30772177 -.00000002  00000-0  85624-4 0  9999
2 21976  74.0001 272.9890 0050330 347.7914 123.0153 12.55705214410622
COSMOS 2188
1 21977U 92030B   23072.38841140  .00000013  00000-0  17357-3 0  9993
2 21977  74.0025 221.6249 0058665 281.2628 105.4874 12.57520982412659
COSMOS 2189
1 21978U 92030C   23072.12467272  .00000010  00000-0  16373-3 0  9990
2 21978  74.0055 321.4406 0039983  41.6821 112.2640 12.53998007408703
COSMOS 2190
1 21979U 92030D   23072.55744397  .00000005  00000-0  13434-3 0  9993
2 21979  74.0071   9.6057 0030868 102.1386   9.4370 12.52255115406778
COSMOS 2191
1 21980U 92030E   23072.41109691  .00000004  00000-0  13745-3 0  9996
2 21980  74.0021 224.8944 0017806  92.2416 296.8746 12.44545561397890
COSMOS 2192
1 21981U 92030F   23072.24452053  .00000007  00000-0  15779-3 0  9993
2 21981  74.0043 166.0250 0008968 345.4700  42.8989 12.46665807400565
COSMOS 2193
1 21982U 92030G   23072.41358778 -.00000008  00000-0  51130-4 0  9996
2 21982  74.0021  61.2107 0021510 164.9553 349.7016 12.50427439404776
COSMOS 2194
1 21983U 92030H   23072.57730509 -.00000014  00000-0  10354-4 0  9990
2 21983  74.0006 115.9605 0017728 257.6555 175.7314 12.48447103402591
SL-8 R/B
1 21984U 92030J   23072.07258878 -.00000053  00000-0 -35756-3 0  9996
2 21984  73.9985 111.4080 0122925 101.9847 285.4949 12.22244707372984
DELTA 1 DEB
1 21985U 75052JX  23071.46788049  .00009853  00000-0  84872-2 0  9999
2 21985  99.5364 249.7314 0034370 134.4991 253.0153 13.86451938539049
THOR ABLESTAR DEB
1 21986U 61015MM  23070.93722316  .00000731  00000-0  48036-3 0  9999
2 21986  66.8749 264.2931 0097118 188.6278 243.3096 14.05170500585177
NSS K (INTELSAT K)
1 21989U 92032A   23072.33920468 -.00000075  00000-0  00000-0 0  9997
2 21989  14.0150  20.6679 0082408 335.2602 211.8376  0.97180535120903
SL-14 DEB
1 21997U 78100AS  23072.02697427  .00117049  00000-0  63247-1 0  9990
2 21997  82.5984 277.9747 0214095 204.9834 154.0857 14.00865970472902
COSMOS 2195
1 22006U 92036A   23072.38675966  .00000132  00000-0  12223-3 0  9993
2 22006  82.9344 222.1885 0036895   1.0480  27.6593 13.75010860540343
SL-8 R/B
1 22007U 92036B   23072.25475217  .00000141  00000-0  12453-3 0  9992
2 22007  82.9359 179.1729 0029909 205.3980 154.5710 13.78040527471755
USA 82
1 22009U 92037A   23071.88619016 -.00000116  00000-0  00000-0 0  9995
2 22009  13.4384  17.8847 0010813  20.8187 198.0971  0.98810652 13369
IABS R/B
1 22011U 92037C   23071.62096247 -.00000140  00000-0  00000-0 0  9992
2 22011  13.2995 343.0560 0019372  71.4162 288.7973  1.01650398 14182
NAVSTAR 26 (USA 83)
1 22014U 92039A   23071.50223173  .00000025  00000-0  00000+0 0  9994
2 22014  55.2603 160.0696 0004790 264.4355  95.5559  1.87912154214675
DELTA 2 R/B(1)
1 22015U 92039B   23072.15758829  .00027019  00000-0  87427-3 0  9992
2 22015  20.7136  84.6015 0036618 358.5767   1.4569 15.29460857709547
SL-8 DEB
1 22025U 91009CJ  23072.30889451  .00000071  00000-0  70629-3 0  9997
2 22025  73.9406 201.0012 0143823 286.7631  99.2430 12.31502154438604
INSAT 2A
1 22027U 92041A   23071.60605021 -.00000165  00000-0  00000-0 0  9995
2 22027  14.7446   1.0151 0004313 261.6772 281.8516  1.00235866112108
EUTE 2-F4
1 22028U 92041B   23072.54906083 -.00000157  00000-0  00000-0 0  9993
2 22028  14.1931  14.1293 0002748 236.1529 300.3277  0.99079868 34942
COSMOS 2197
1 22034U 92042A   23072.30642245  .00000043  00000-0  17563-3 0  9990
2 22034  82.5893 270.5083 0013281 104.5498 306.1459 12.64192874414684
COSMOS 2198
1 22035U 92042B   23072.59602451  .00000029  00000-0  10384-3 0  9995
2 22035  82.5943 293.3759 0006713 130.6505 229.5171 12.62624257413035
COSMOS 2199
1 22036U 92042C   23072.11216580  .00000043  00000-0  18128-3 0  9998
2 22036  82.6007 317.3016 0011729 144.5848   9.1637 12.61000238410984
COSMOS 2200
1 22037U 92042D   23072.08726086  .00000028  00000-0  94308-4 0  9990
2 22037  82.5832 276.6222 0008466 131.7419 344.8173 12.63271878413688
COSMOS 2201
1 22038U 92042E   23072.58282132  .00000030  00000-0  11121-3 0  9999
2 22038  82.5883 298.7927 0009240 131.2171 243.3566 12.61733345412029
COSMOS 2202
1 22039U 92042F   23072.04600830  .00000031  00000-0  11459-3 0  9995
2 22039  82.5934 293.0967 0008939 124.8241 355.9231 12.62612187412951
SL-14 R/B
1 22040U 92042G   23072.30425937  .00000036  00000-0  15851-3 0  9994
2 22040  82.6070  35.3894 0042121  24.3301 134.1037 12.55330954404877
GORIZONT 26
1 22041U 92043A   23072.47666076  .00000054  00000-0  00000-0 0  9992
2 22041  14.5169 353.4234 0030104 240.5618 326.7733  0.99242633111647
SL-12 R/B(2)
1 22044U 92043D   23072.01021479 -.00000154  00000-0  00000-0 0  9999
2 22044  15.2198 355.1540 0025508 157.5595  31.2520  0.97832003107890
GEOTAIL
1 22049U 92044A   23076.66016562 -.00000713  00000-0  00000-0 0  9998
2 22049  47.6313  32.9422 4848535 213.8503 357.7026  0.19223632 13488
COSMOS 2206 (GLONASS)
1 22056U 92047A   23072.38570237 -.00000056  00000-0  00000-0 0  9998
2 22056  64.8081 343.8362 0009599 257.5589 272.6390  2.13107746238223
COSMOS 2204 (GLONASS)
1 22057U 92047B   23072.35295505 -.00000056  00000-0  00000-0 0  9998
2 22057  64.8223 344.0153 0016962 343.1040 216.4580  2.13103269238132
COSMOS 2205 (GLONASS)
1 22058U 92047C   23069.41907487 -.00000053  00000-0  00000-0 0  9998
2 22058  64.8180 344.0607 0016505 225.5388 293.4105  2.13102865238072
SL-12 R/B(2)
1 22061U 92047F   23069.34858404 -.00000052  00000-0  00000-0 0  9997
2 22061  64.7992 343.0709 0002873 313.5377  47.7888  2.13332746238416
SL-12 R/B(AUX MOTOR)
1 22066U 92047G   23072.19673234  .00001760  00000-0  20412-2 0  9992
2 22066  64.6693 225.2433 5703629 202.3226 117.2511  4.34936596473823
TOPEX/POSEIDON
1 22076U 92052A   23072.48785338 -.00000047  00000-0  60917-4 0  9994
2 22076  66.0388  88.0131 0007707 271.7842 254.8844 12.81047251430837
OSCAR 23 (KITSAT 1)
1 22077U 92052B   23071.98900375 -.00000027  00000-0  13780-3 0  9992
2 22077  66.0828 258.6318 0004957 197.0769 329.9660 12.86556108436311
S80/T
1 22078U 92052C   23072.68008069 -.00000034  00000-0  11236-3 0  9992
2 22078  66.0825 245.6259 0004703 176.9345 183.1703 12.86809402437300
ARIANE 42P R/B
1 22079U 92052D   23072.47761466 -.00000108  00000-0 -21599-3 0  9993
2 22079  66.0636 245.5801 0062395 127.7492 249.5296 12.77897443427115
COSMOS 2208
1 22080U 92053A   23072.02494125  .00000297  00000-0  12307-3 0  9996
2 22080  74.0408 284.1433 0012206  39.8344 320.3700 14.30847051596080
SL-8 R/B
1 22081U 92053B   23072.29510771  .00000673  00000-0  24995-3 0  9996
2 22081  74.0441 208.7426 0035498  23.1934 337.0810 14.33762261598576
OPTUS B1 (AUSSAT B1)
1 22087U 92054A   23072.46693873  .00000044  00000-0  00000-0 0  9997
2 22087  11.3818  32.1676 0009712  71.3866 123.3463  0.99201969122886
OPTUS B1 R/B(STAR 63F)
1 22089U 92054C   23071.86490713  .00000081  00000-0  44200-3 0  9994
2 22089  23.2725 283.5161 7250009 299.2156   7.7746  2.23019127246243
